ONEWEB-0474             
1 51654U 22012AJ  23321.45944971 -.00000509  00000+0 -14950-2 0  9998
2 51654  87.9005 223.4881 0001478  60.1819 299.9455 13.10378382 85838
ONEWEB-0475             
1 51655U 22012AK  23321.92930909  .00000049  00000+0  94286-4 0  9996
2 51655  87.9236 193.1797 0001525  59.9752 300.1530 13.17649625 89605
ONEWEB-0490             
1 54113U 22138A   23321.73184871  .00000042  00000+0  73236-4 0  9990
2 54113  87.9173 132.5644 0001371  88.5658 271.5631 13.19725625 52528
ONEWEB-0492             
1 54114U 22138B   23321.75711011  .00000025  00000+0  30623-4 0  9999
2 54114  87.9172 132.5543 0001141  86.4159 273.7104 13.19726527 52536
ONEWEB-0495             
1 54115U 22138C   23321.73501201  .00000057  00000+0  11022-3 0  9992
2 54115  87.9173 132.5705 0001173  72.5075 287.6186 13.19722580 52513
ONEWEB-0497             
1 54116U 22138D   23321.52018748  .00000060  00000+0  11657-3 0  9997
2 54116  87.9175 132.6069 0001370  87.4610 272.6679 13.19726160 52473
ONEWEB-0499             
1 54117U 22138E   23321.73026875  .00000056  00000+0  10878-3 0  9990
2 54117  87.9169 132.5609 0001929  73.6816 286.4529 13.19724579 52515
ONEWEB-0500             
1 54118U 22138F   23321.73341678  .00000063  00000+0  12386-3 0  9996
2 54118  87.9176 132.5590 0001383  91.1435 268.9856 13.19727473 52524
