<?xml version="1.0" encoding="UTF-8"?>
<ndm xmlns:xsi="http://www.w3.org/2001/XMLSchema-instance" xsi:noNamespaceSchemaLocation="https://sanaregistry.org/r/ndmxml_unqualified/ndmxml-2.0.0-master-2.0.xsd">
<omm id="CCSDS_OMM_VERS" version="2.0">
<header><CREATION_DATE/><ORIGINATOR/></header><body><segment><metadata><OBJECT_NAME>ONEWEB-0474</OBJECT_NAME><OBJECT_ID>2022-012AJ</OBJECT_ID><CENTER_NAME>EARTH</CENTER_NAME><REF_FRAME>TEME</REF_FRAME><TIME_SYSTEM>UTC</TIME_SYSTEM><MEAN_ELEMENT_THEORY>SGP4</MEAN_ELEMENT_THEORY></metadata><data><meanElements><EPOCH>2023-11-17T11:01:36.454944</EPOCH><MEAN_MOTION>13.10378382</MEAN_MOTION><ECCENTRICITY>.0001478</ECCENTRICITY><INCLINATION>87.9005</INCLINATION><RA_OF_ASC_NODE>223.4881</RA_OF_ASC_NODE><ARG_OF_PERICENTER>60.1819</ARG_OF_PERICENTER><MEAN_ANOMALY>299.9455</MEAN_ANOMALY></meanElements><tleParameters><EPHEMERIS_TYPE>0</EPHEMERIS_TYPE><CLASSIFICATION_TYPE>U</CLASSIFICATION_TYPE><NORAD_CAT_ID>51654</NORAD_CAT_ID><ELEMENT_SET_NO>999</ELEMENT_SET_NO><REV_AT_EPOCH>8583</REV_AT_EPOCH><BSTAR>-.1495E-2</BSTAR><MEAN_MOTION_DOT>-.509E-5</MEAN_MOTION_DOT><MEAN_MOTION_DDOT>0</MEAN_MOTION_DDOT></tleParameters></data></segment></body></omm>
<omm id="CCSDS_OMM_VERS" version="2.0">
<header><CREATION_DATE/><ORIGINATOR/></header><body><segment><metadata><OBJECT_NAME>ONEWEB-0475</OBJECT_NAME><OBJECT_ID>2022-012AK</OBJECT_ID><CENTER_NAME>EARTH</CENTER_NAME><REF_FRAME>TEME</REF_FRAME><TIME_SYSTEM>UTC</TIME_SYSTEM><MEAN_ELEMENT_THEORY>SGP4</MEAN_ELEMENT_THEORY></metadata><data><meanElements><EPOCH>2023-11-17T22:18:12.305376</EPOCH><MEAN_MOTION>13.17649625</MEAN_MOTION><ECCENTRICITY>.0001525</ECCENTRICITY><INCLINATION>87.9236</INCLINATION><RA_OF_ASC_NODE>193.1797</RA_OF_ASC_NODE><ARG_OF_PERICENTER>59.9752</ARG_OF_PERICENTER><MEAN_ANOMALY>300.1530</MEAN_ANOMALY></meanElements><tleParameters><EPHEMERIS_TYPE>0</EPHEMERIS_TYPE><CLASSIFICATION_TYPE>U</CLASSIFICATION_TYPE><NORAD_CAT_ID>51655</NORAD_CAT_ID><ELEMENT_SET_NO>999</ELEMENT_SET_NO><REV_AT_EPOCH>8960</REV_AT_EPOCH><BSTAR>.94286E-4</BSTAR><MEAN_MOTION_DOT>.49E-6</MEAN_MOTION_DOT><MEAN_MOTION_DDOT>0</MEAN_MOTION_DDOT></tleParameters></data></segment></body></omm>
<omm id="CCSDS_OMM_VERS" version="2.0">
<header><CREATION_DATE/><ORIGINATOR/></header><body><segment><metadata><OBJECT_NAME>ONEWEB-0490</OBJECT_NAME><OBJECT_ID>2022-138A</OBJECT_ID><CENTER_NAME>EARTH</CENTER_NAME><REF_FRAME>TEME</REF_FRAME><TIME_SYSTEM>UTC</TIME_SYSTEM><MEAN_ELEMENT_THEORY>SGP4</MEAN_ELEMENT_THEORY></metadata><data><meanElements><EPOCH>2023-11-17T17:33:51.728544</EPOCH><MEAN_MOTION>13.19725625</MEAN_MOTION><ECCENTRICITY>.0001371</ECCENTRICITY><INCLINATION>87.9173</INCLINATION><RA_OF_ASC_NODE>132.5644</RA_OF_ASC_NODE><ARG_OF_PERICENTER>88.5658</ARG_OF_PERICENTER><MEAN_ANOMALY>271.5631</MEAN_ANOMALY></meanElements><tleParameters><EPHEMERIS_TYPE>0</EPHEMERIS_TYPE><CLASSIFICATION_TYPE>U</CLASSIFICATION_TYPE><NORAD_CAT_ID>54113</NORAD_CAT_ID><ELEMENT_SET_NO>999</ELEMENT_SET_NO><REV_AT_EPOCH>5252</REV_AT_EPOCH><BSTAR>.73236E-4</BSTAR><MEAN_MOTION_DOT>.42E-6</MEAN_MOTION_DOT><MEAN_MOTION_DDOT>0</MEAN_MOTION_DDOT></tleParameters></data></segment></body></omm>
<omm id="CCSDS_OMM_VERS" version="2.0">
<header><CREATION_DATE/><ORIGINATOR/></header><body><segment><metadata><OBJECT_NAME>ONEWEB-0492</OBJECT_NAME><OBJECT_ID>2022-138B</OBJECT_ID><CENTER_NAME>EARTH</CENTER_NAME><REF_FRAME>TEME</REF_FRAME><TIME_SYSTEM>UTC</TIME_SYSTEM><MEAN_ELEMENT_THEORY>SGP4</MEAN_ELEMENT_THEORY></metadata><data><meanElements><EPOCH>2023-11-17T18:10:14.313504</EPOCH><MEAN_MOTION>13.19726527</MEAN_MOTION><ECCENTRICITY>.0001141</ECCENTRICITY><INCLINATION>87.9172</INCLINATION><RA_OF_ASC_NODE>132.5543</RA_OF_ASC_NODE><ARG_OF_PERICENTER>86.4159</ARG_OF_PERICENTER><MEAN_ANOMALY>273.7104</MEAN_ANOMALY></meanElements><tleParameters><EPHEMERIS_TYPE>0</EPHEMERIS_TYPE><CLASSIFICATION_TYPE>U</CLASSIFICATION_TYPE><NORAD_CAT_ID>54114</NORAD_CAT_ID><ELEMENT_SET_NO>999</ELEMENT_SET_NO><REV_AT_EPOCH>5253</REV_AT_EPOCH><BSTAR>.30623E-4</BSTAR><MEAN_MOTION_DOT>.25E-6</MEAN_MOTION_DOT><MEAN_MOTION_DDOT>0</MEAN_MOTION_DDOT></tleParameters></data></segment></body></omm>
<omm id="CCSDS_OMM_VERS" version="2.0">
<header><CREATION_DATE/><ORIGINATOR/></header><body><segment><metadata><OBJECT_NAME>ONEWEB-0495</OBJECT_NAME><OBJECT_ID>2022-138C</OBJECT_ID><CENTER_NAME>EARTH</CENTER_NAME><REF_FRAME>TEME</REF_FRAME><TIME_SYSTEM>UTC</TIME_SYSTEM><MEAN_ELEMENT_THEORY>SGP4</MEAN_ELEMENT_THEORY></metadata><data><meanElements><EPOCH>2023-11-17T17:38:25.037664</EPOCH><MEAN_MOTION>13.19722580</MEAN_MOTION><ECCENTRICITY>.0001173</ECCENTRICITY><INCLINATION>87.9173</INCLINATION><RA_OF_ASC_NODE>132.5705</RA_OF_ASC_NODE><ARG_OF_PERICENTER>72.5075</ARG_OF_PERICENTER><MEAN_ANOMALY>287.6186</MEAN_ANOMALY></meanElements><tleParameters><EPHEMERIS_TYPE>0</EPHEMERIS_TYPE><CLASSIFICATION_TYPE>U</CLASSIFICATION_TYPE><NORAD_CAT_ID>54115</NORAD_CAT_ID><ELEMENT_SET_NO>999</ELEMENT_SET_NO><REV_AT_EPOCH>5251</REV_AT_EPOCH><BSTAR>.11022E-3</BSTAR><MEAN_MOTION_DOT>.57E-6</MEAN_MOTION_DOT><MEAN_MOTION_DDOT>0</MEAN_MOTION_DDOT></tleParameters></data></segment></body></omm>
<omm id="CCSDS_OMM_VERS" version="2.0">
<header><CREATION_DATE/><ORIGINATOR/></header><body><segment><metadata><OBJECT_NAME>ONEWEB-0497</OBJECT_NAME><OBJECT_ID>2022-138D</OBJECT_ID><CENTER_NAME>EARTH</CENTER_NAME><REF_FRAME>TEME</REF_FRAME><TIME_SYSTEM>UTC</TIME_SYSTEM><MEAN_ELEMENT_THEORY>SGP4</MEAN_ELEMENT_THEORY></metadata><data><meanElements><EPOCH>2023-11-17T12:29:04.198272</EPOCH><MEAN_MOTION>13.19726160</MEAN_MOTION><ECCENTRICITY>.000137</ECCENTRICITY><INCLINATION>87.9175</INCLINATION><RA_OF_ASC_NODE>132.6069</RA_OF_ASC_NODE><ARG_OF_PERICENTER>87.4610</ARG_OF_PERICENTER><MEAN_ANOMALY>272.6679</MEAN_ANOMALY></meanElements><tleParameters><EPHEMERIS_TYPE>0</EPHEMERIS_TYPE><CLASSIFICATION_TYPE>U</CLASSIFICATION_TYPE><NORAD_CAT_ID>54116</NORAD_CAT_ID><ELEMENT_SET_NO>999</ELEMENT_SET_NO><REV_AT_EPOCH>5247</REV_AT_EPOCH><BSTAR>.11657E-3</BSTAR><MEAN_MOTION_DOT>.6E-6</MEAN_MOTION_DOT><MEAN_MOTION_DDOT>0</MEAN_MOTION_DDOT></tleParameters></data></segment></body></omm>
<omm id="CCSDS_OMM_VERS" version="2.0">
<header><CREATION_DATE/><ORIGINATOR/></header><body><segment><metadata><OBJECT_NAME>ONEWEB-0499</OBJECT_NAME><OBJECT_ID>2022-138E</OBJECT_ID><CENTER_NAME>EARTH</CENTER_NAME><REF_FRAME>TEME</REF_FRAME><TIME_SYSTEM>UTC</TIME_SYSTEM><MEAN_ELEMENT_THEORY>SGP4</MEAN_ELEMENT_THEORY></metadata><data><meanElements><EPOCH>2023-11-17T17:31:35.220000</EPOCH><MEAN_MOTION>13.19724579</MEAN_MOTION><ECCENTRICITY>.0001929</ECCENTRICITY><INCLINATION>87.9169</INCLINATION><RA_OF_ASC_NODE>132.5609</RA_OF_ASC_NODE><ARG_OF_PERICENTER>73.6816</ARG_OF_PERICENTER><MEAN_ANOMALY>286.4529</MEAN_ANOMALY></meanElements><tleParameters><EPHEMERIS_TYPE>0</EPHEMERIS_TYPE><CLASSIFICATION_TYPE>U</CLASSIFICATION_TYPE><NORAD_CAT_ID>54117</NORAD_CAT_ID><ELEMENT_SET_NO>999</ELEMENT_SET_NO><REV_AT_EPOCH>5251</REV_AT_EPOCH><BSTAR>.10878E-3</BSTAR><MEAN_MOTION_DOT>.56E-6</MEAN_MOTION_DOT><MEAN_MOTION_DDOT>0</MEAN_MOTION_DDOT></tleParameters></data></segment></body></omm>
<omm id="CCSDS_OMM_VERS" version="2.0">
<header><CREATION_DATE/><ORIGINATOR/></header><body><segment><metadata><OBJECT_NAME>ONEWEB-0500</OBJECT_NAME><OBJECT_ID>2022-138F</OBJECT_ID><CENTER_NAME>EARTH</CENTER_NAME><REF_FRAME>TEME</REF_FRAME><TIME_SYSTEM>UTC</TIME_SYSTEM><MEAN_ELEMENT_THEORY>SGP4</MEAN_ELEMENT_THEORY></metadata><data><meanElements><EPOCH>2023-11-17T17:36:07.209792</EPOCH><MEAN_MOTION>13.19727473</MEAN_MOTION><ECCENTRICITY>.0001383</ECCENTRICITY><INCLINATION>87.9176</INCLINATION><RA_OF_ASC_NODE>132.5590</RA_OF_ASC_NODE><ARG_OF_PERICENTER>91.1435</ARG_OF_PERICENTER><MEAN_ANOMALY>268.9856</MEAN_ANOMALY></meanElements><tleParameters><EPHEMERIS_TYPE>0</EPHEMERIS_TYPE><CLASSIFICATION_TYPE>U</CLASSIFICATION_TYPE><NORAD_CAT_ID>54118</NORAD_CAT_ID><ELEMENT_SET_NO>999</ELEMENT_SET_NO><REV_AT_EPOCH>5252</REV_AT_EPOCH><BSTAR>.12386E-3</BSTAR><MEAN_MOTION_DOT>.63E-6</MEAN_MOTION_DOT><MEAN_MOTION_DDOT>0</MEAN_MOTION_DDOT></tleParameters></data></segment></body></omm>

</ndm>
